IXPE                    
1 49954U 21121A   23271.58253335  .00006760  00000+0  53251-3 0  9994
2 49954   0.2290 177.0510 0010225 349.1386 193.8379 14.94852415 98506
